{
    "links": {
        "self": "http://www.neowsapp.com/rest/v1/neo/54062085?api_key=iIulBulltgU6a56xZRHN4H3l9WmuAYTsLGpBGhQ2"
    },
    "id": "54062085",
    "neo_reference_id": "54062085",
    "name": "(2020 TW4)",
    "designation": "2020 TW4",
    "nasa_jpl_url": "http://ssd.jpl.nasa.gov/sbdb.cgi?sstr=54062085",
    "absolute_magnitude_h": 27.152,
    "estimated_diameter": {
        "kilometers": {
            "estimated_diameter_min": 0.009866315,
            "estimated_diameter_max": 0.022061751
        },
        "meters": {
            "estimated_diameter_min": 9.8663149914,
            "estimated_diameter_max": 22.0617510081
        },
        "miles": {
            "estimated_diameter_min": 0.006130642,
            "estimated_diameter_max": 0.0137085323
        },
        "feet": {
            "estimated_diameter_min": 32.3698008763,
            "estimated_diameter_max": 72.3810751775
        }
    },
    "is_potentially_hazardous_asteroid": false,
    "close_approach_data": [
        {
            "close_approach_date": "2020-10-13",
            "close_approach_date_full": "2020-Oct-13 22:52",
            "epoch_date_close_approach": 1602629520000,
            "relative_velocity": {
                "kilometers_per_second": "8.4359344307",
                "kilometers_per_hour": "30369.3639504431",
                "miles_per_hour": "18870.341727985"
            },
            "miss_distance": {
                "astronomical": "0.014458173",
                "lunar": "5.624229297",
                "kilometers": "2162911.88489151",
                "miles": "1343971.124502438"
            },
            "orbiting_body": "Earth"
        },
        {
            "close_approach_date": "2157-11-23",
            "close_approach_date_full": "2157-Nov-23 00:31",
            "epoch_date_close_approach": 5929374660000,
            "relative_velocity": {
                "kilometers_per_second": "16.5920939759",
                "kilometers_per_hour": "59731.5383133599",
                "miles_per_hour": "37114.8550147652"
            },
            "miss_distance": {
                "astronomical": "0.2988871874",
                "lunar": "116.2671158986",
                "kilometers": "44712886.605330838",
                "miles": "27783299.4078400444"
            },
            "orbiting_body": "Earth"
        },
        {
            "close_approach_date": "2159-07-31",
            "close_approach_date_full": "2159-Jul-31 20:51",
            "epoch_date_close_approach": 5982583860000,
            "relative_velocity": {
                "kilometers_per_second": "2.4168924997",
                "kilometers_per_hour": "8700.8129987458",
                "miles_per_hour": "5406.3468324707"
            },
            "miss_distance": {
                "astronomical": "1.9142118732",
                "lunar": "744.6284186748",
                "kilometers": "286362018.959430084",
                "miles": "177937107.5280757992"
            },
            "orbiting_body": "Juptr"
        },
        {
            "close_approach_date": "2164-08-17",
            "close_approach_date_full": "2164-Aug-17 16:13",
            "epoch_date_close_approach": 6141888780000,
            "relative_velocity": {
                "kilometers_per_second": "17.9852788392",
                "kilometers_per_hour": "64747.0038210311",
                "miles_per_hour": "40231.2702353512"
            },
            "miss_distance": {
                "astronomical": "0.3570975057",
                "lunar": "138.9109297173",
                "kilometers": "53421026.235032859",
                "miles": "33194286.4629330942"
            },
            "orbiting_body": "Earth"
        }
    ],
    "orbital_data": {
        "orbit_id": "4",
        "orbit_determination_date": "2020-10-19 08:21:31",
        "first_observation_date": "2020-10-13",
        "last_observation_date": "2020-10-18",
        "data_arc_in_days": 5,
        "observations_used": 31,
        "orbit_uncertainty": "8",
        "minimum_orbit_intersection": ".0142503",
        "jupiter_tisserand_invariant": "3.375",
        "epoch_osculation": "2459137.5",
        "eccentricity": ".5570715589686233",
        "semi_major_axis": "2.277244201991277",
        "inclination": "7.134983286960769",
        "ascending_node_longitude": "202.6378175270193",
        "orbital_period": "1255.19972196738",
        "perihelion_distance": "1.008656224235738",
        "perihelion_argument": "171.2003018445028",
        "aphelion_distance": "3.545832179746816",
        "perihelion_time": "2459130.809260612879",
        "mean_anomaly": "1.918950536085408",
        "mean_motion": ".2868069468942693",
        "equinox": "J2000",
        "orbit_class": {
            "orbit_class_type": "APO",
            "orbit_class_description": "Near-Earth asteroid orbits which cross the Earth’s orbit similar to that of 1862 Apollo",
            "orbit_class_range": "a (semi-major axis) > 1.0 AU; q (perihelion) < 1.017 AU"
        }
    },
    "is_sentry_object": false
}